CTC2_L_00494032-01
1 42638U 25814QQ  26070.40849537  .00000000  00000+0  00000-0 0  9997
2 42638 100.4000  74.4000 0000000   0.0000 148.8000 13.16009679    19
CTC2_L_00494032-02
1 42639U 22958DJ  26070.40849537  .00000000  00000+0  00000-0 0  9994
2 42639 100.4000  74.4000 0000000   0.0000 328.8000 13.16009679    10
CTC2_L_00494033-01
1 42640U 24756ZU  26070.40849537  .00000000  00000+0  00000-0 0  9994
2 42640 100.4000  76.8000 0000000   0.0000 153.6000 13.16009679    12
CTC2_L_00494033-02
1 42641U 26634N   26070.40849537  .00000000  00000+0  00000-0 0  9992
2 42641 100.4000  76.8000 0000000   0.0000 333.6000 13.16009679    13
CTC2_L_00494034-01
1 42642U 22129DY  26070.40849537  .00000000  00000+0  00000-0 0  9998
2 42642 100.4000  79.2000 0000000   0.0000 158.4000 13.16009679    14
CTC2_L_00494034-02
1 42643U 22116RB  26070.40849537  .00000000  00000+0  00000-0 0  9995
2 42643 100.4000  79.2000 0000000   0.0000 338.4000 13.16009679    15
CTC2_L_00494035-01
1 42644U 24366EP  26070.40849537  .00000000  00000+0  00000-0 0  9995
2 42644 100.4000  81.6000 0000000   0.0000 163.2000 13.16009679    17
CTC2_L_00494035-02
1 42645U 25230FG  26070.40849537  .00000000  00000+0  00000-0 0  9997
2 42645 100.4000  81.6000 0000000   0.0000 343.2000 13.16009679    18
CTC2_L_00494036-01
1 42646U 26122UL  26070.40849537  .00000000  00000+0  00000-0 0  9999
2 42646 100.4000  84.0000 0000000   0.0000 168.0000 13.16009679    19
CTC2_L_00494036-02
1 42647U 22471WD  26070.40849537  .00000000  00000+0  00000-0 0  9993
2 42647 100.4000  84.0000 0000000   0.0000 348.0000 13.16009679    10
CTC2_L_00494037-01
1 42648U 25145CA  26070.40849537  .00000000  00000+0  00000-0 0  9995
2 42648 100.4000  86.4000 0000000   0.0000 172.8000 13.16009679    10
CTC2_L_00494037-02
1 42649U 23718EW  26070.40849537  .00000000  00000+0  00000-0 0  9990
2 42649 100.4000  86.4000 0000000   0.0000 352.8000 13.16009679    11
CTC2_L_00494038-01
1 42650U 25222JX  26070.40849537  .00000000  00000+0  00000-0 0  9994
2 42650 100.4000  88.8000 0000000   0.0000 177.6000 13.16009679    12
CTC2_L_00494038-02
1 42651U 26021ZN  26070.40849537  .00000000  00000+0  00000-0 0  9993
2 42651 100.4000  88.8000 0000000   0.0000 357.6000 13.16009679    13
CTC2_L_00494039-01
1 42652U 23880OS  26070.40849537  .00000000  00000+0  00000-0 0  9994
2 42652 100.4000  91.2000 0000000   0.0000 182.4000 13.16009679    16
CTC2_L_00494039-02
1 42653U 22708MP  26070.40849537  .00000000  00000+0  00000-0 0  9993
2 42653 100.4000  91.2000 0000000   0.0000   2.4000 13.16009679    18
CTC2_L_00494040-01
1 42654U 23395XU  26070.40849537  .00000000  00000+0  00000-0 0  9997
2 42654 100.4000  93.6000 0000000   0.0000 187.2000 13.16009679    17
CTC2_L_00494040-02
1 42655U 25616PQ  26070.40849537  .00000000  00000+0  00000-0 0  9996
2 42655 100.4000  93.6000 0000000   0.0000   7.2000 13.16009679    19
CTC2_L_00494041-01
1 42656U 24644UX  26070.40849537  .00000000  00000+0  00000-0 0  9997
2 42656 100.4000  96.0000 0000000   0.0000 192.0000 13.16009679    10
CTC2_L_00494041-02
1 42657U 25101VI  26070.40849537  .00000000  00000+0  00000-0 0  9997
2 42657 100.4000  96.0000 0000000   0.0000  12.0000 13.16009679    12
CTC2_L_00494042-01
1 42658U 24246OE  26070.40849537  .00000000  00000+0  00000-0 0  9997
2 42658 100.4000  98.4000 0000000   0.0000 196.8000 13.16009679    10
CTC2_L_00494042-02
1 42659U 23522CH  26070.40849537  .00000000  00000+0  00000-0 0  9994
2 42659 100.4000  98.4000 0000000   0.0000  16.8000 13.16009679    12
CTC2_L_00494043-01
1 42660U 22488JN  26070.40849537  .00000000  00000+0  00000-0 0  9996
2 42660 100.4000 100.8000 0000000   0.0000 201.6000 13.16009679    16
CTC2_L_00494043-02
1 42661U 24232TG  26070.40849537  .00000000  00000+0  00000-0 0  9996
2 42661 100.4000 100.8000 0000000   0.0000  21.6000 13.16009679    17
CTC2_L_00494044-01
1 42662U 22734RW  26070.40849537  .00000000  00000+0  00000-0 0  9992
2 42662 100.4000 103.2000 0000000   0.0000 206.4000 13.16009679    18
CTC2_L_00494044-02
1 42663U 22778PG  26070.40849537  .00000000  00000+0  00000-0 0  9991
2 42663 100.4000 103.2000 0000000   0.0000  26.4000 13.16009679    19
CTC2_L_00494045-01
1 42664U 25318CL  26070.40849537  .00000000  00000+0  00000-0 0  9995
2 42664 100.4000 105.6000 0000000   0.0000 211.2000 13.16009679    10
CTC2_L_00494045-02
1 42665U 26988OV  26070.40849537  .00000000  00000+0  00000-0 0  9990
2 42665 100.4000 105.6000 0000000   0.0000  31.2000 13.16009679    11
CTC2_L_00494046-01
1 42666U 23606UD  26070.40849537  .00000000  00000+0  00000-0 0  9995
2 42666 100.4000 108.0000 0000000   0.0000 216.0000 13.16009679    12
CTC2_L_00494046-02
1 42667U 22932VG  26070.40849537  .00000000  00000+0  00000-0 0  9997
2 42667 100.4000 108.0000 0000000   0.0000  36.0000 13.16009679    13
CTC2_L_00494047-01
1 42668U 24944OM  26070.40849537  .00000000  00000+0  00000-0 0  9993
2 42668 100.4000 110.4000 0000000   0.0000 220.8000 13.16009679    14
CTC2_L_00494047-02
1 42669U 22481P   26070.40849537  .00000000  00000+0  00000-0 0  9998
2 42669 100.4000 110.4000 0000000   0.0000  40.8000 13.16009679    15
CTC2_L_00494048-01
1 42670U 23420SR  26070.40849537  .00000000  00000+0  00000-0 0  9994
2 42670 100.4000 112.8000 0000000   0.0000 225.6000 13.16009679    16
CTC2_L_00494048-02
1 42671U 23110NH  26070.40849537  .00000000  00000+0  00000-0 0  9991
2 42671 100.4000 112.8000 0000000   0.0000  45.6000 13.16009679    17
CTC2_L_00494049-01
1 42672U 24356P   26070.40849537  .00000000  00000+0  00000-0 0  9995
2 42672 100.4000 115.2000 0000000   0.0000 230.4000 13.16009679    19
CTC2_L_00494049-02
1 42673U 23534AC  26070.40849537  .00000000  00000+0  00000-0 0  9993
2 42673 100.4000 115.2000 0000000   0.0000  50.4000 13.16009679    10
CTC2_L_00494050-01
1 42674U 25479QQ  26070.40849537  .00000000  00000+0  00000-0 0  9994
2 42674 100.4000 117.6000 0000000   0.0000 235.2000 13.16009679    10
CTC2_L_00494050-02
1 42675U 22665GG  26070.40849537  .00000000  00000+0  00000-0 0  9999
2 42675 100.4000 117.6000 0000000   0.0000  55.2000 13.16009679    11
CTC2_L_00494051-01
1 42676U 25892ZD  26070.40849537  .00000000  00000+0  00000-0 0  9995
2 42676 100.4000 120.0000 0000000   0.0000 240.0000 13.16009679    14
CTC2_L_00494051-02
1 42677U 25956EI  26070.40849537  .00000000  00000+0  00000-0 0  9997
2 42677 100.4000 120.0000 0000000   0.0000  60.0000 13.16009679    15
CTC2_L_00494052-01
1 42678U 25899JF  26070.40849537  .00000000  00000+0  00000-0 0  9994
2 42678 100.4000 122.4000 0000000   0.0000 244.8000 13.16009679    14
CTC2_L_00494052-02
1 42679U 25208XM  26070.40849537  .00000000  00000+0  00000-0 0  9999
2 42679 100.4000 122.4000 0000000   0.0000  64.8000 13.16009679    15
CTC2_L_00494053-01
1 42680U 26872QS  26070.40849537  .00000000  00000+0  00000-0 0  9999
2 42680 100.4000 124.8000 0000000   0.0000 249.6000 13.16009679    16
CTC2_L_00494053-02
1 42681U 23735LL  26070.40849537  .00000000  00000+0  00000-0 0  9995
2 42681 100.4000 124.8000 0000000   0.0000  69.6000 13.16009679    17
CTC2_L_00494054-01
1 42682U 23708XE  26070.40849537  .00000000  00000+0  00000-0 0  9996
2 42682 100.4000 127.2000 0000000   0.0000 254.4000 13.16009679    19
CTC2_L_00494054-02
1 42683U 22783XW  26070.40849537  .00000000  00000+0  00000-0 0  9999
2 42683 100.4000 127.2000 0000000   0.0000  74.4000 13.16009679    10
CTC2_L_00494055-01
1 42684U 25988UP  26070.40849537  .00000000  00000+0  00000-0 0  9990
2 42684 100.4000 129.6000 0000000   0.0000 259.2000 13.16009679    10
CTC2_L_00494055-02
1 42685U 25939BU  26070.40849537  .00000000  00000+0  00000-0 0  9997
2 42685 100.4000 129.6000 0000000   0.0000  79.2000 13.16009679    11
CTC2_L_00494056-01
1 42686U 25132EI  26070.40849537  .00000000  00000+0  00000-0 0  9993
2 42686 100.4000 132.0000 0000000   0.0000 264.0000 13.16009679    14
CTC2_L_00494056-02
1 42687U 25769JD  26070.40849537  .00000000  00000+0  00000-0 0  9990
2 42687 100.4000 132.0000 0000000   0.0000  84.0000 13.16009679    15
CTC2_L_00494057-01
1 42688U 25300ON  26070.40849537  .00000000  00000+0  00000-0 0  9992
2 42688 100.4000 134.4000 0000000   0.0000 268.8000 13.16009679    14
CTC2_L_00494057-02
1 42689U 25961TN  26070.40849537  .00000000  00000+0  00000-0 0  9996
2 42689 100.4000 134.4000 0000000   0.0000  88.8000 13.16009679    15
CTC2_L_00494058-01
1 42690U 24715PP  26070.40849537  .00000000  00000+0  00000-0 0  9994
2 42690 100.4000 136.8000 0000000   0.0000 273.6000 13.16009679    17
CTC2_L_00494058-02
1 42691U 22353KZ  26070.40849537  .00000000  00000+0  00000-0 0  9991
2 42691 100.4000 136.8000 0000000   0.0000  93.6000 13.16009679    18
CTC2_L_00494059-01
1 42692U 25199OK  26070.40849537  .00000000  00000+0  00000-0 0  9993
2 42692 100.4000 139.2000 0000000   0.0000 278.4000 13.16009679    19
CTC2_L_00494059-02
1 42693U 23065LM  26070.40849537  .00000000  00000+0  00000-0 0  9994
2 42693 100.4000 139.2000 0000000   0.0000  98.4000 13.16009679    10
CTC2_L_00494060-01
1 42694U 24587WP  26070.40849537  .00000000  00000+0  00000-0 0  9995
2 42694 100.4000 141.6000 0000000   0.0000 283.2000 13.16009679    12
CTC2_L_00494060-02
1 42695U 23821UO  26070.40849537  .00000000  00000+0  00000-0 0  9996
2 42695 100.4000 141.6000 0000000   0.0000 103.2000 13.16009679    14
CTC2_L_00494061-01
1 42696U 22186KI  26070.40849537  .00000000  00000+0  00000-0 0  9990
2 42696 100.4000 144.0000 0000000   0.0000 288.0000 13.16009679    14
CTC2_L_00494061-02
1 42697U 23131OT  26070.40849537  .00000000  00000+0  00000-0 0  9992
2 42697 100.4000 144.0000 0000000   0.0000 108.0000 13.16009679    16
CTC2_L_00494062-01
1 42698U 23225VW  26070.40849537  .00000000  00000+0  00000-0 0  9997
2 42698 100.4000 146.4000 0000000   0.0000 292.8000 13.16009679    15
CTC2_L_00494062-02
1 42699U 26168IZ  26070.40849537  .00000000  00000+0  00000-0 0  9997
2 42699 100.4000 146.4000 0000000   0.0000 112.8000 13.16009679    17
